STARLINK-37383          
1 69379U 26123AC  26162.25002315 -.01785468  96427-3 -33159-2 0  9998
2 69379  53.1554 271.2222 0000719  71.9083 206.6735 16.00539354  2335
STARLINK-37411          
1 69380U 26123AD  26162.25002315 -.01781003  95117-3 -34634-2 0  9995
2 69380  53.1559 271.2531 0000788  66.2351 197.4159 15.99734921  2337
STARLINK-37427          
1 69381U 26123AE  26162.25002315 -.01724968  90220-3 -32423-2 0  9997
2 69381  53.1558 271.2346 0000770  68.4988 204.1936 16.00321503  2242
DTC TEST OBJECT A       
1 69472U 26128A   26162.32154764  .00019345  00000+0  28171-3 0  9999
2 69472  54.9939 332.1227 0008142 262.6798  97.3312 15.55778052   318
DTC TEST OBJECT B       
1 69473U 26128B   26160.58682037  .00017012  00000+0  24813-3 0  9993
2 69473  55.0026 340.1350 0008153 260.4303  99.5812 15.55833698    30
