OBJECT_NAME,OBJECT_ID,EPOCH,MEAN_MOTION,ECCENTRICITY,INCLINATION,RA_OF_ASC_NODE,ARG_OF_PERICENTER,MEAN_ANOMALY,EPHEMERIS_TYPE,CLASSIFICATION_TYPE,NORAD_CAT_ID,ELEMENT_SET_NO,REV_AT_EPOCH,BSTAR,MEAN_MOTION_DOT,MEAN_MOTION_DDOT
STARLINK-37383,2026-123AC,2026-06-11T06:00:02.000160,16.00539354,.00007199,53.1554,271.2222,71.9083,206.6735,0,U,69379,999,233,-.3315859E-2,-.1785468E-1,.96427474E-3
STARLINK-37411,2026-123AD,2026-06-11T06:00:02.000160,15.99734921,.00007883,53.1559,271.2531,66.2351,197.4159,0,U,69380,999,233,-.34633921E-2,-.1781003E-1,.95117361E-3
STARLINK-37427,2026-123AE,2026-06-11T06:00:02.000160,16.00321503,.00007703,53.1558,271.2346,68.4988,204.1936,0,U,69381,999,224,-.32423425E-2,-.1724968E-1,.90219526E-3
DTC TEST OBJECT A,2026-128A,2026-06-11T07:43:01.716096,15.55778052,.00081428,54.9939,332.1227,262.6798,97.3312,0,U,69472,999,31,.28170953E-3,.19345E-3,0
DTC TEST OBJECT B,2026-128B,2026-06-09T14:05:01.279968,15.55833698,.0008153,55.0026,340.1350,260.4303,99.5812,0,U,69473,999,3,.24813E-3,.17012E-3,0
